{
  "type": "FeatureCollection",
  "features": [
    {
      "type": "Feature",
      "properties": {
        "norad_id": 64751,
        "name": "PROGRESS-MS 31",
        "group": "stations",
        "lat": -50.28379171808949,
        "lon": -33.8910450270279,
        "alt_km": 420.2237524947095,
        "timestamp": "2025-12-26T15:29:38.202090+00:00",
        "meta_object_name": "PROGRESS-MS 31",
        "meta_object_id": "2025-146A",
        "meta_epoch": "2025-12-26T05:05:45.767328",
        "meta_mean_motion": 15.49833819,
        "meta_eccentricity": 0.00032367,
        "meta_inclination": 51.6319,
        "meta_ra_of_asc_node": 75.7553,
        "meta_arg_of_pericenter": 303.1667,
        "meta_mean_anomaly": 56.9011,
        "meta_ephemeris_type": 0,
        "meta_classification_type": "U",
        "meta_norad_cat_id": 64751,
        "meta_element_set_no": 999,
        "meta_rev_at_epoch": 675,
        "meta_bstar": 0.00025187037,
        "meta_mean_motion_dot": 0.00013862,
        "meta_mean_motion_ddot": 0,
        "tle_line1": "1 64751U 25146A   25360.21233527  .00013862  00000+0  25187-3 0  9997",
        "tle_line2": "2 64751  51.6319  75.7553 0003236 303.1667  56.9011 15.49833819  6753"
      },
      "geometry": {
        "type": "Point",
        "coordinates": [
          -33.8910450270279,
          -50.28379171808949
        ]
      }
    },
    {
      "type": "Feature",
      "properties": {
        "norad_id": 64786,
        "name": "TIANZHOU-9",
        "group": "stations",
        "lat": -7.388785505027245,
        "lon": 120.69356149462553,
        "alt_km": 384.45446335951146,
        "timestamp": "2025-12-26T15:29:38.202102+00:00",
        "meta_object_name": "TIANZHOU-9",
        "meta_object_id": "2025-149A",
        "meta_epoch": "2025-12-26T05:27:30.670848",
        "meta_mean_motion": 15.59708409,
        "meta_eccentricity": 0.00085179,
        "meta_inclination": 41.468,
        "meta_ra_of_asc_node": 294.7909,
        "meta_arg_of_pericenter": 149.5046,
        "meta_mean_anomaly": 210.6289,
        "meta_ephemeris_type": 0,
        "meta_classification_type": "U",
        "meta_norad_cat_id": 64786,
        "meta_element_set_no": 999,
        "meta_rev_at_epoch": 25530,
        "meta_bstar": 0.00023601706,
        "meta_mean_motion_dot": 0.00019151,
        "meta_mean_motion_ddot": 0,
        "tle_line1": "1 64786U 25149A   25360.22743832  .00019151  00000+0  23602-3 0  9991",
        "tle_line2": "2 64786  41.4680 294.7909 0008517 149.5046 210.6289 15.59708409255307"
      },
      "geometry": {
        "type": "Point",
        "coordinates": [
          120.69356149462553,
          -7.388785505027245
        ]
      }
    },
    {
      "type": "Feature",
      "properties": {
        "norad_id": 65077,
        "name": "CREW DRAGON 11",
        "group": "stations",
        "lat": -50.28379205269157,
        "lon": -33.89104286911819,
        "alt_km": 420.2237524649272,
        "timestamp": "2025-12-26T15:29:38.202112+00:00",
        "meta_object_name": "CREW DRAGON 11",
        "meta_object_id": "2025-166A",
        "meta_epoch": "2025-12-26T05:05:45.767328",
        "meta_mean_motion": 15.49833819,
        "meta_eccentricity": 0.00032367,
        "meta_inclination": 51.6319,
        "meta_ra_of_asc_node": 75.7553,
        "meta_arg_of_pericenter": 303.1667,
        "meta_mean_anomaly": 56.9011,
        "meta_ephemeris_type": 0,
        "meta_classification_type": "U",
        "meta_norad_cat_id": 65077,
        "meta_element_set_no": 999,
        "meta_rev_at_epoch": 214,
        "meta_bstar": 0.00025187037,
        "meta_mean_motion_dot": 0.00013862,
        "meta_mean_motion_ddot": 0,
        "tle_line1": "1 65077U 25166A   25360.21233527  .00013862  00000+0  25187-3 0  9991",
        "tle_line2": "2 65077  51.6319  75.7553 0003236 303.1667  56.9011 15.49833819  2144"
      },
      "geometry": {
        "type": "Point",
        "coordinates": [
          -33.89104286911819,
          -50.28379205269157
        ]
      }
    },
    {
      "type": "Feature",
      "properties": {
        "norad_id": 65304,
        "name": "DRAGON CRS-33",
        "group": "stations",
        "lat": -50.283792204783595,
        "lon": -33.891041888248914,
        "alt_km": 420.2237524513894,
        "timestamp": "2025-12-26T15:29:38.202122+00:00",
        "meta_object_name": "DRAGON CRS-33",
        "meta_object_id": "2025-186A",
        "meta_epoch": "2025-12-26T05:05:45.767328",
        "meta_mean_motion": 15.49833819,
        "meta_eccentricity": 0.00032367,
        "meta_inclination": 51.6319,
        "meta_ra_of_asc_node": 75.7553,
        "meta_arg_of_pericenter": 303.1667,
        "meta_mean_anomaly": 56.9011,
        "meta_ephemeris_type": 0,
        "meta_classification_type": "U",
        "meta_norad_cat_id": 65304,
        "meta_element_set_no": 999,
        "meta_rev_at_epoch": 11,
        "meta_bstar": 0.00025187037,
        "meta_mean_motion_dot": 0.00013862,
        "meta_mean_motion_ddot": 0,
        "tle_line1": "1 65304U 25186A   25360.21233527  .00013862  00000+0  25187-3 0  9996",
        "tle_line2": "2 65304  51.6319  75.7553 0003236 303.1667  56.9011 15.49833819   112"
      },
      "geometry": {
        "type": "Point",
        "coordinates": [
          -33.891041888248914,
          -50.283792204783595
        ]
      }
    },
    {
      "type": "Feature",
      "properties": {
        "norad_id": 65586,
        "name": "PROGRESS-MS 32",
        "group": "stations",
        "lat": -50.2837923568754,
        "lon": -33.891040907380976,
        "alt_km": 420.22375243785064,
        "timestamp": "2025-12-26T15:29:38.202132+00:00",
        "meta_object_name": "PROGRESS-MS 32",
        "meta_object_id": "2025-204A",
        "meta_epoch": "2025-12-26T05:05:45.767328",
        "meta_mean_motion": 15.49833819,
        "meta_eccentricity": 0.00032367,
        "meta_inclination": 51.6319,
        "meta_ra_of_asc_node": 75.7553,
        "meta_arg_of_pericenter": 303.1667,
        "meta_mean_anomaly": 56.9011,
        "meta_ephemeris_type": 0,
        "meta_classification_type": "U",
        "meta_norad_cat_id": 65586,
        "meta_element_set_no": 999,
        "meta_rev_at_epoch": 27,
        "meta_bstar": 0.00025187037,
        "meta_mean_motion_dot": 0.00013862,
        "meta_mean_motion_ddot": 0,
        "tle_line1": "1 65586U 25204A   25360.21233527  .00013862  00000+0  25187-3 0  9999",
        "tle_line2": "2 65586  51.6319  75.7553 0003236 303.1667  56.9011 15.49833819   271"
      },
      "geometry": {
        "type": "Point",
        "coordinates": [
          -33.891040907380976,
          -50.2837923568754
        ]
      }
    },
    {
      "type": "Feature",
      "properties": {
        "norad_id": 65616,
        "name": "CYGNUS NG-23",
        "group": "stations",
        "lat": -50.28379250896721,
        "lon": -33.89103992651291,
        "alt_km": 420.2237524243137,
        "timestamp": "2025-12-26T15:29:38.202142+00:00",
        "meta_object_name": "CYGNUS NG-23",
        "meta_object_id": "2025-208A",
        "meta_epoch": "2025-12-26T05:05:45.767328",
        "meta_mean_motion": 15.49833819,
        "meta_eccentricity": 0.00032367,
        "meta_inclination": 51.6319,
        "meta_ra_of_asc_node": 75.7553,
        "meta_arg_of_pericenter": 303.1667,
        "meta_mean_anomaly": 56.9011,
        "meta_ephemeris_type": 0,
        "meta_classification_type": "U",
        "meta_norad_cat_id": 65616,
        "meta_element_set_no": 999,
        "meta_rev_at_epoch": 22,
        "meta_bstar": 0.00025187037,
        "meta_mean_motion_dot": 0.00013862,
        "meta_mean_motion_ddot": 0,
        "tle_line1": "1 65616U 25208A   25360.21233527  .00013862  00000+0  25187-3 0  9997",
        "tle_line2": "2 65616  51.6319  75.7553 0003236 303.1667  56.9011 15.49833819   220"
      },
      "geometry": {
        "type": "Point",
        "coordinates": [
          -33.89103992651291,
          -50.28379250896721
        ]
      }
    },
    {
      "type": "Feature",
      "properties": {
        "norad_id": 65729,
        "name": "DRAGONFLY",
        "group": "stations",
        "lat": 23.333772124282856,
        "lon": 84.2924753764016,
        "alt_km": 332.1697124103066,
        "timestamp": "2025-12-26T15:29:38.202152+00:00",
        "meta_object_name": "DRAGONFLY",
        "meta_object_id": "1998-067XH",
        "meta_epoch": "2025-12-25T10:27:45.650592",
        "meta_mean_motion": 15.76365427,
        "meta_eccentricity": 0.0008108,
        "meta_inclination": 51.6246,
        "meta_ra_of_asc_node": 70.5435,
        "meta_arg_of_pericenter": 352.3473,
        "meta_mean_anomaly": 7.7402,
        "meta_ephemeris_type": 0,
        "meta_classification_type": "U",
        "meta_norad_cat_id": 65729,
        "meta_element_set_no": 999,
        "meta_rev_at_epoch": 1516,
        "meta_bstar": 0.0012462,
        "meta_mean_motion_dot": 0.00205682,
        "meta_mean_motion_ddot": 0,
        "tle_line1": "1 65729U 98067XH  25359.43594503  .00205682  00000+0  12462-2 0  9995",
        "tle_line2": "2 65729  51.6246  70.5435 0008108 352.3473   7.7402 15.76365427 15162"
      },
      "geometry": {
        "type": "Point",
        "coordinates": [
          84.2924753764016,
          23.333772124282856
        ]
      }
    }
  ]
}